start=new Date('2022-12-17T00:00:00.000Z').valueOf();
sats=[{"OBJECT_NAME":"STARLINK-3772","ARG_OF_PERICENTER":"35.2132","OBJECT_ID":"2022-041AF","GP_ID":"220663866","TLE_LINE2":"2 52290  53.2191 351.6029 0002753  35.2132 324.9041 15.08838820 36522","REV_AT_EPOCH":"3652","CENTER_NAME":"EARTH","CLASSIFICATION_TYPE":"U","MEAN_MOTION_DDOT":"0.0000000000000","ELEMENT_SET_NO":"999","RA_OF_ASC_NODE":"351.6029","EPHEMERIS_TYPE":"0","SEMIMAJOR_AXIS":"6917.884","MEAN_MOTION_DOT":"0.00001213","OBJECT_TYPE":"PAYLOAD","REF_FRAME":"TEME","FILE":"3705029","PERIAPSIS":"537.845","NORAD_CAT_ID":"52290","SITE":"AFETR","MEAN_ANOMALY":"324.9041","TIME_SYSTEM":"UTC","RCS_SIZE":"LARGE","EPOCH":"2022-12-16T17:56:01.094496","COUNTRY_CODE":"US","MEAN_MOTION":"15.08838820","APOAPSIS":"541.653","LAUNCH_DATE":"2022-04-21","MEAN_ELEMENT_THEORY":"SGP4","INCLINATION":"53.2191","DECAY_DATE":null,"PERIOD":"95.438","TLE_LINE1":"1 52290U 22041AF  22350.74723489  .00001213  00000-0  94301-4 0  9991","BSTAR":"0.00009430100000","ECCENTRICITY":"0.00027530"},{"MEAN_MOTION":"15.08843841","COUNTRY_CODE":"US","SITE":"AFETR","NORAD_CAT_ID":"52291","MEAN_ANOMALY":"335.1757","TIME_SYSTEM":"UTC","RCS_SIZE":"LARGE","EPOCH":"2022-12-16T19:56:30.437376","TLE_LINE1":"1 52291U 22041AG  22350.83090784  .00000839  00000-0  70855-4 0  9998","BSTAR":"0.00007085500000","ECCENTRICITY":"0.00029320","DECAY_DATE":null,"PERIOD":"95.437","INCLINATION":"53.2173","APOAPSIS":"541.762","MEAN_ELEMENT_THEORY":"SGP4","LAUNCH_DATE":"2022-04-21","RA_OF_ASC_NODE":"351.2149","CLASSIFICATION_TYPE":"U","ELEMENT_SET_NO":"999","MEAN_MOTION_DDOT":"0.0000000000000","GP_ID":"220664118","OBJECT_ID":"2022-041AG","TLE_LINE2":"2 52291  53.2173 351.2149 0002932  24.9376 335.1757 15.08843841 36534","REV_AT_EPOCH":"3653","CENTER_NAME":"EARTH","ARG_OF_PERICENTER":"24.9376","OBJECT_NAME":"STARLINK-3773","PERIAPSIS":"537.705","REF_FRAME":"TEME","FILE":"3705029","SEMIMAJOR_AXIS":"6917.869","MEAN_MOTION_DOT":"0.00000839","OBJECT_TYPE":"PAYLOAD","EPHEMERIS_TYPE":"0"},{"DECAY_DATE":null,"PERIOD":"95.438","TLE_LINE1":"1 52292U 22041AH  22350.74259385  .00000289  00000-0  36241-4 0  9993","BSTAR":"0.00003624100000","ECCENTRICITY":"0.00019560","APOAPSIS":"541.097","LAUNCH_DATE":"2022-04-21","MEAN_ELEMENT_THEORY":"SGP4","INCLINATION":"53.2195","COUNTRY_CODE":"US","MEAN_MOTION":"15.08840392","SITE":"AFETR","TIME_SYSTEM":"UTC","NORAD_CAT_ID":"52292","MEAN_ANOMALY":"321.4290","RCS_SIZE":"LARGE","EPOCH":"2022-12-16T17:49:20.108640","REF_FRAME":"TEME","FILE":"3705029","PERIAPSIS":"538.391","EPHEMERIS_TYPE":"0","SEMIMAJOR_AXIS":"6917.879","MEAN_MOTION_DOT":"0.00000289","OBJECT_TYPE":"PAYLOAD","CLASSIFICATION_TYPE":"U","ELEMENT_SET_NO":"999","MEAN_MOTION_DDOT":"0.0000000000000","RA_OF_ASC_NODE":"351.6212","ARG_OF_PERICENTER":"38.6842","OBJECT_NAME":"STARLINK-3753","OBJECT_ID":"2022-041AH","GP_ID":"220664854","TLE_LINE2":"2 52292  53.2195 351.6212 0001956  38.6842 321.4290 15.08840392 36526","REV_AT_EPOCH":"3652","CENTER_NAME":"EARTH"},{"OBJECT_TYPE":"PAYLOAD","MEAN_MOTION_DOT":"0.00002838","SEMIMAJOR_AXIS":"6917.863","EPHEMERIS_TYPE":"0","PERIAPSIS":"537.759","REF_FRAME":"TEME","FILE":"3704515","TLE_LINE2":"2 52293  53.2186 352.7647 0002847  26.9352 333.1787 15.08845644 37704","GP_ID":"220627904","OBJECT_ID":"2022-041AJ","CENTER_NAME":"EARTH","REV_AT_EPOCH":"3770","OBJECT_NAME":"STARLINK-3771","ARG_OF_PERICENTER":"26.9352","RA_OF_ASC_NODE":"352.7647","MEAN_MOTION_DDOT":"0.0000000000000","ELEMENT_SET_NO":"999","CLASSIFICATION_TYPE":"U","INCLINATION":"53.2186","APOAPSIS":"541.698","MEAN_ELEMENT_THEORY":"SGP4","LAUNCH_DATE":"2022-04-21","TLE_LINE1":"1 52293U 22041AJ  22350.48867724  .00002838  00000-0  19630-3 0  9991","ECCENTRICITY":"0.00028470","BSTAR":"0.00019630000000","DECAY_DATE":null,"PERIOD":"95.437","RCS_SIZE":"LARGE","MEAN_ANOMALY":"333.1787","SITE":"AFETR","NORAD_CAT_ID":"52293","TIME_SYSTEM":"UTC","EPOCH":"2022-12-16T11:43:41.713536","MEAN_MOTION":"15.08845644","COUNTRY_CODE":"US"},{"EPHEMERIS_TYPE":"0","MEAN_MOTION_DOT":"0.00000578","OBJECT_TYPE":"PAYLOAD","SEMIMAJOR_AXIS":"6917.872","FILE":"3705029","REF_FRAME":"TEME","PERIAPSIS":"538.121","OBJECT_NAME":"STARLINK-3777","ARG_OF_PERICENTER":"38.8981","CENTER_NAME":"EARTH","REV_AT_EPOCH":"3652","TLE_LINE2":"2 52294  53.2190 351.6441 0002337  38.8981 321.2179 15.08842618 36524","OBJECT_ID":"2022-041AK","GP_ID":"220663366","ELEMENT_SET_NO":"999","MEAN_MOTION_DDOT":"0.0000000000000","CLASSIFICATION_TYPE":"U","RA_OF_ASC_NODE":"351.6441","LAUNCH_DATE":"2022-04-21","MEAN_ELEMENT_THEORY":"SGP4","APOAPSIS":"541.354","INCLINATION":"53.2190","PERIOD":"95.437","DECAY_DATE":null,"ECCENTRICITY":"0.00023370","BSTAR":"0.00005443600000","TLE_LINE1":"1 52294U 22041AK  22350.73891429  .00000578  00000-0  54436-4 0  9992","EPOCH":"2022-12-16T17:44:02.194656","RCS_SIZE":"MEDIUM","NORAD_CAT_ID":"52294","SITE":"AFETR","MEAN_ANOMALY":"321.2179","TIME_SYSTEM":"UTC","COUNTRY_CODE":"US","MEAN_MOTION":"15.08842618"},{"APOAPSIS":"541.228","MEAN_ELEMENT_THEORY":"SGP4","LAUNCH_DATE":"2022-04-21","INCLINATION":"53.2186","DECAY_DATE":null,"PERIOD":"95.438","TLE_LINE1":"1 52295U 22041AL  22350.74995816  .00001146  00000-0  90128-4 0  9999","BSTAR":"0.00009012800000","ECCENTRICITY":"0.00021320","NORAD_CAT_ID":"52295","SITE":"AFETR","MEAN_ANOMALY":"319.7811","TIME_SYSTEM":"UTC","RCS_SIZE":"LARGE","EPOCH":"2022-12-16T17:59:56.385024","COUNTRY_CODE":"US","MEAN_MOTION":"15.08837613","EPHEMERIS_TYPE":"0","SEMIMAJOR_AXIS":"6917.888","MEAN_MOTION_DOT":"0.00001146","OBJECT_TYPE":"PAYLOAD","REF_FRAME":"TEME","FILE":"3705029","PERIAPSIS":"538.278","OBJECT_NAME":"STARLINK-3765","ARG_OF_PERICENTER":"40.3339","GP_ID":"220664619","OBJECT_ID":"2022-041AL","TLE_LINE2":"2 52295  53.2186 351.5806 0002132  40.3339 319.7811 15.08837613 36526","REV_AT_EPOCH":"3652","CENTER_NAME":"EARTH","CLASSIFICATION_TYPE":"U","MEAN_MOTION_DDOT":"0.0000000000000","ELEMENT_SET_NO":"999","RA_OF_ASC_NODE":"351.5806"},{"RA_OF_ASC_NODE":"351.6988","ELEMENT_SET_NO":"999","MEAN_MOTION_DDOT":"0.0000000000000","CLASSIFICATION_TYPE":"U","TLE_LINE2":"2 52296  53.2176 351.6988 0002330  36.3313 323.7837 15.08848519 36525","OBJECT_ID":"2022-041AM","GP_ID":"220664354","CENTER_NAME":"EARTH","REV_AT_EPOCH":"3652","OBJECT_NAME":"STARLINK-3766","ARG_OF_PERICENTER":"36.3313","PERIAPSIS":"538.107","REF_FRAME":"TEME","FILE":"3705029","OBJECT_TYPE":"PAYLOAD","MEAN_MOTION_DOT":"0.00000553","SEMIMAJOR_AXIS":"6917.854","EPHEMERIS_TYPE":"0","MEAN_MOTION":"15.08848519","COUNTRY_CODE":"US","RCS_SIZE":"LARGE","SITE":"AFETR","NORAD_CAT_ID":"52296","MEAN_ANOMALY":"323.7837","TIME_SYSTEM":"UTC","EPOCH":"2022-12-16T17:28:08.676480","TLE_LINE1":"1 52296U 22041AM  22350.72787820  .00000553  00000-0  52846-4 0  9998","ECCENTRICITY":"0.00023300","BSTAR":"0.00005284600000","DECAY_DATE":null,"PERIOD":"95.437","INCLINATION":"53.2176","APOAPSIS":"541.331","LAUNCH_DATE":"2022-04-21","MEAN_ELEMENT_THEORY":"SGP4"},{"ARG_OF_PERICENTER":"27.5646","OBJECT_NAME":"STARLINK-3758","CENTER_NAME":"EARTH","REV_AT_EPOCH":"3652","TLE_LINE2":"2 52297  53.2183 351.6006 0002982  27.5646 332.5503 15.08841980 36522","GP_ID":"220663121","OBJECT_ID":"2022-041AN","ELEMENT_SET_NO":"999","MEAN_MOTION_DDOT":"0.0000000000000","CLASSIFICATION_TYPE":"U","RA_OF_ASC_NODE":"351.6006","EPHEMERIS_TYPE":"0","MEAN_MOTION_DOT":"0.00000993","OBJECT_TYPE":"PAYLOAD","SEMIMAJOR_AXIS":"6917.874","FILE":"3705029","REF_FRAME":"TEME","PERIAPSIS":"537.676","EPOCH":"2022-12-16T17:54:38.309472","RCS_SIZE":"LARGE","NORAD_CAT_ID":"52297","SITE":"AFETR","MEAN_ANOMALY":"332.5503","TIME_SYSTEM":"UTC","COUNTRY_CODE":"US","MEAN_MOTION":"15.08841980","MEAN_ELEMENT_THEORY":"SGP4","LAUNCH_DATE":"2022-04-21","APOAPSIS":"541.802","INCLINATION":"53.2183","PERIOD":"95.437","DECAY_DATE":null,"ECCENTRICITY":"0.00029820","BSTAR":"0.00008051100000","TLE_LINE1":"1 52297U 22041AN  22350.74627673  .00000993  00000-0  80511-4 0  9998"},{"EPHEMERIS_TYPE":"0","MEAN_MOTION_DOT":"0.00000345","OBJECT_TYPE":"PAYLOAD","SEMIMAJOR_AXIS":"6917.878","REF_FRAME":"TEME","FILE":"3702730","PERIAPSIS":"537.871","ARG_OF_PERICENTER":"28.2227","OBJECT_NAME":"STARLINK-3760","TLE_LINE2":"2 52298  53.2187 352.9015 0002707  28.2227 331.8911 15.08840667 36480","OBJECT_ID":"2022-041AP","GP_ID":"220585481","CENTER_NAME":"EARTH","REV_AT_EPOCH":"3648","ELEMENT_SET_NO":"999","MEAN_MOTION_DDOT":"0.0000000000000","CLASSIFICATION_TYPE":"U","RA_OF_ASC_NODE":"352.9015","APOAPSIS":"541.616","MEAN_ELEMENT_THEORY":"SGP4","LAUNCH_DATE":"2022-04-21","INCLINATION":"53.2187","DECAY_DATE":null,"PERIOD":"95.438","TLE_LINE1":"1 52298U 22041AP  22350.45923896  .00000345  00000-0  39804-4 0  9993","ECCENTRICITY":"0.00027070","BSTAR":"0.00003980400000","RCS_SIZE":"LARGE","SITE":"AFETR","TIME_SYSTEM":"UTC","NORAD_CAT_ID":"52298","MEAN_ANOMALY":"331.8911","EPOCH":"2022-12-16T11:01:18.246144","COUNTRY_CODE":"US","MEAN_MOTION":"15.08840667"},{"RCS_SIZE":"LARGE","MEAN_ANOMALY":"307.6484","SITE":"AFETR","NORAD_CAT_ID":"52299","TIME_SYSTEM":"UTC","EPOCH":"2022-12-16T17:33:26.575776","MEAN_MOTION":"15.08846663","COUNTRY_CODE":"US","INCLINATION":"53.2200","APOAPSIS":"541.051","LAUNCH_DATE":"2022-04-21","MEAN_ELEMENT_THEORY":"SGP4","TLE_LINE1":"1 52299U 22041AQ  22350.73155759 -.00000539  00000-0 -15760-4 0  9992","ECCENTRICITY":"0.00019170","BSTAR":"-0.00001576000000","DECAY_DATE":null,"PERIOD":"95.437","TLE_LINE2":"2 52299  53.2200 351.6753 0001917  52.4683 307.6484 15.08846663 36522","OBJECT_ID":"2022-041AQ","GP_ID":"220664119","CENTER_NAME":"EARTH","REV_AT_EPOCH":"3652","ARG_OF_PERICENTER":"52.4683","OBJECT_NAME":"STARLINK-3759","RA_OF_ASC_NODE":"351.6753","ELEMENT_SET_NO":"999","MEAN_MOTION_DDOT":"0.0000000000000","CLASSIFICATION_TYPE":"U","OBJECT_TYPE":"PAYLOAD","MEAN_MOTION_DOT":"-0.00000539","SEMIMAJOR_AXIS":"6917.860","EPHEMERIS_TYPE":"0","PERIAPSIS":"538.399","REF_FRAME":"TEME","FILE":"3705029"}];
